[{"OBJECT_NAME":"SALSAT","OBJECT_ID":"2020-068K","EPOCH":"2026-03-09T22:26:21.804576","MEAN_MOTION":15.28191989,"ECCENTRICITY":0.00082652,"INCLINATION":97.8859,"RA_OF_ASC_NODE":66.0795,"ARG_OF_PERICENTER":295.8051,"MEAN_ANOMALY":64.2334,"EPHEMERIS_TYPE":0,"CLASSIFICATION_TYPE":"U","NORAD_CAT_ID":46495,"ELEMENT_SET_NO":999,"REV_AT_EPOCH":30019,"BSTAR":0.00040842582,"MEAN_MOTION_DOT":0.00011156,"MEAN_MOTION_DDOT":0},{"OBJECT_NAME":"STARLINK-31658","OBJECT_ID":"2024-073C","EPOCH":"2026-03-08T23:49:40.679616","MEAN_MOTION":15.27577693,"ECCENTRICITY":8.65e-5,"INCLINATION":43.0011,"RA_OF_ASC_NODE":281.6769,"ARG_OF_PERICENTER":234.2074,"MEAN_ANOMALY":125.8698,"EPHEMERIS_TYPE":0,"CLASSIFICATION_TYPE":"U","NORAD_CAT_ID":59513,"ELEMENT_SET_NO":999,"REV_AT_EPOCH":10652,"BSTAR":-3.7783113e-5,"MEAN_MOTION_DOT":-1.301e-5,"MEAN_MOTION_DDOT":0}]
